[{"OBJECT_NAME":"ANSER LEADER-S","OBJECT_ID":"2025-009AM","EPOCH":"2026-03-09T17:26:35.310912","MEAN_MOTION":15.37938842,"ECCENTRICITY":0.00014346,"INCLINATION":97.4062,"RA_OF_ASC_NODE":153.827,"ARG_OF_PERICENTER":298.2423,"MEAN_ANOMALY":61.8677,"EPHEMERIS_TYPE":0,"CLASSIFICATION_TYPE":"U","NORAD_CAT_ID":62644,"ELEMENT_SET_NO":999,"REV_AT_EPOCH":6387,"BSTAR":0.00079384372,"MEAN_MOTION_DOT":0.00029611,"MEAN_MOTION_DDOT":0},{"OBJECT_NAME":"SL-4 R\/B","OBJECT_ID":"2014-021B","EPOCH":"2026-03-09T02:37:43.173408","MEAN_MOTION":15.39160447,"ECCENTRICITY":0.00975963,"INCLINATION":51.6078,"RA_OF_ASC_NODE":340.109,"ARG_OF_PERICENTER":100.9217,"MEAN_ANOMALY":260.2766,"EPHEMERIS_TYPE":0,"CLASSIFICATION_TYPE":"U","NORAD_CAT_ID":39679,"ELEMENT_SET_NO":999,"REV_AT_EPOCH":65618,"BSTAR":0.00043042763,"MEAN_MOTION_DOT":0.00019652,"MEAN_MOTION_DDOT":0}]
